CUTE-1 (CO-55)          
1 27844U 03031E   26189.95445865  .00000197  00000+0  10410-3 0  9999
2 27844  98.6739 198.2397 0010684 118.8005 241.4249 14.24348882194778
CUBESAT XI-IV (CO-57)   
1 27848U 03031J   26189.46187375  .00000184  00000+0  99678-4 0  9998
2 27848  98.6772 197.4488 0010258 137.0463 223.1519 14.23632050194408
CUBESAT XI-V            
1 28895U 05043F   26189.39764200  .00001087  00000+0  17855-3 0  9995
2 28895  98.3007 345.4679 0015004 135.1728 225.0694 14.72690312104879
CUTE-1.7+APD II (CO-65) 
1 32785U 08021C   26189.92434474  .00002753  00000+0  17517-3 0  9999
2 32785  97.8286 171.7992 0007478 325.1210  34.9527 15.09662179988475
CANX-2                  
1 32790U 08021H   26189.88640540  .00002770  00000+0  19556-3 0  9997
2 32790  97.8652 170.0887 0009456 340.1450  19.9407 15.05778327988079
SEEDS II (CO-66)        
1 32791U 08021J   26189.93516932  .00012773  00000+0  39659-3 0  9991
2 32791  97.7528 188.8830 0002351 170.9352 189.1933 15.33517693990629
SWISSCUBE               
1 35932U 09051B   26189.17253487  .00000734  00000+0  15442-3 0  9992
2 35932  98.4017  97.4251 0007478 138.1087 222.0687 14.62521876892227
BEESAT-1                
1 35933U 09051C   26189.67208954  .00000597  00000+0  12966-3 0  9992
2 35933  98.3944  97.5236 0005733 147.2714 212.8843 14.61755226892329
ITUPSAT1                
1 35935U 09051E   26189.54478970  .00000560  00000+0  12544-3 0  9999
2 35935  98.4027  96.5634 0007610 162.4704 197.6760 14.60472478891858
TISAT 1                 
1 36799U 10035E   26189.80023537  .00014699  00000+0  46982-3 0  9997
2 36799  98.0702 138.2805 0004043 132.5191 227.6391 15.32560746871018
STRAND-1                
1 39090U 13009E   26189.91715955  .00000195  00000+0  79795-4 0  9997
2 39090  98.3931   9.6176 0009049 158.4879 201.6690 14.37176360700187
BRITE-AUSTRIA           
1 39091U 13009F   26189.93945591  .00000114  00000+0  53493-4 0  9999
2 39091  98.4005   8.8378 0010385 168.5831 191.5593 14.36550763700171
NEE-01 PEGASO           
1 39151U 13018B   26189.63488288  .00001612  00000+0  15764-3 0  9990
2 39151  98.1251 334.4982 0013931  93.6559 266.6253 14.93773274713901
POPACS 2                
1 39269U 13055E   26189.24274161  .00012393 -88328-6  20236-3 0  9996
2 39269  80.9910 120.0851 0415514 126.1925 237.8477 14.91823858666354
POPACS 3                
1 39270U 13055F   26189.48606341  .00008965  00000+0  21220-3 0  9990
2 39270  80.9993 206.0862 0549621   5.1431 355.5089 14.56541276641654
ZACUBE-1 (TSHEPISOSAT)  
1 39417U 13066B   26189.86955589  .00001537  00000+0  12203-3 0  9997
2 39417  97.8017 152.3146 0043626 175.4835 184.6792 15.01310102683989
WNISAT-1                
1 39423U 13066H   26189.89676647  .00000897  00000+0  17079-3 0  9996
2 39423  97.7227 337.5149 0163451 163.0582 197.6169 14.58110223669898
TRITON-1                
1 39427U 13066M   26189.90525759  .00001176  00000+0  14560-3 0  9992
2 39427  97.8222  99.2161 0090085 162.5181 197.9169 14.81780191677306
GOMX-1                  
1 39430U 13066Q   26189.97513211  .00001010  00000+0  15766-3 0  9999
2 39430  97.6477  29.0627 0128832   8.1911 352.1358 14.69532398673116
CUBEBUG-2 (LO-74)       
1 39440U 13066AA  26189.83232878  .00001930  00000+0  18159-3 0  9992
2 39440  97.8908 138.9052 0056173 317.0714  42.6128 14.93942220680223
NEE-02 KRYSAOR          
1 39441U 13066AB  26189.81421898  .00001413  00000+0  15917-3 0  9998
2 39441  97.8889 128.8760 0065985   0.3069 359.8176 14.86721722679411
FUNCUBE-1 (AO-73)       
1 39444U 13066AE  26189.86389517  .00004949  00000+0  30572-3 0  9998
2 39444  97.8287 161.7669 0037692 128.2905 232.1724 15.09765418682932
UWE-3                   
1 39446U 13066AG  26189.33612893  .00001733  00000+0  15204-3 0  9991
2 39446  97.8696 145.5560 0047521 248.4998 111.1154 14.97171964680740
BRITE-CA1 (TORONTO)     
1 40020U 14033L   26189.91577823  .00000709  00000+0  11399-3 0  9996
2 40020  97.9764 318.4465 0077987 206.4501 153.2717 14.72714360645418
DUCHIFAT-1              
1 40021U 14033M   26189.73435118  .00119204  00000+0  99492-3 0  9998
2 40021  98.0439 252.0028 0001812 257.7492 102.3565 15.69682214659128
NANOSATC-BR1            
1 40024U 14033Q   26189.89295221  .00012243  00000+0  39647-3 0  9998
2 40024  98.0720 224.2139 0005305 111.5840 248.5966 15.32184216657308
QB50P1                  
1 40025U 14033R   26189.50144571  .00005677  00000+0  27786-3 0  9992
2 40025  98.0973 202.1461 0009934 144.4347 215.7549 15.18598212656267
QB50P2                  
1 40032U 14033Y   26189.95766014  .00004607  00000+0  24733-3 0  9992
2 40032  98.0762 188.1976 0009329 101.2367 258.9913 15.15452069655962
PERSEUS-M2              
1 40037U 14033AD  26189.94158966  .00001268  00000+0  11969-3 0  9994
2 40037  97.9965 140.9261 0010642 222.0271 138.0133 14.95574111654038
PERSEUS-M1              
1 40039U 14033AF  26189.84591777  .00001214  00000+0  11442-3 0  9993
2 40039  97.9646 134.3348 0010558 219.7065 140.3384 14.95699156653871
